OBJECT_NAME,OBJECT_ID,EPOCH,MEAN_MOTION,ECCENTRICITY,INCLINATION,RA_OF_ASC_NODE,ARG_OF_PERICENTER,MEAN_ANOMALY,EPHEMERIS_TYPE,CLASSIFICATION_TYPE,NORAD_CAT_ID,ELEMENT_SET_NO,REV_AT_EPOCH,BSTAR,MEAN_MOTION_DOT,MEAN_MOTION_DDOT
INTELSAT 902 (IS-902),2001-039A,2026-07-17T11:19:30.484704,1.00271814,.0004189,6.1904,71.4099,44.3428,299.3155,0,U,26900,999,9099,0,-.295E-5,0
INTELSAT 904 (IS-904),2002-007A,2026-07-17T09:42:07.333056,1.00270447,.0005387,6.9936,68.8185,26.8195,313.6337,0,U,27380,999,5206,0,-.238E-5,0
DIRECTV 5 (TEMPO 1),2002-023A,2026-07-17T14:27:40.096224,1.00271724,.000319,4.9537,74.9297,48.7166,278.5717,0,U,27426,999,8842,0,-.69E-6,0
INTELSAT 905 (IS-905),2002-027A,2026-07-17T15:17:38.736096,1.00272193,.0003517,6.8280,69.4293,48.4479,269.7727,0,U,27438,999,5166,0,.82E-6,0
GALAXY 3C (G-3C),2002-030A,2026-07-17T15:56:51.327744,1.00270862,.0001647,3.8109,77.5822,31.8510,330.4186,0,U,27445,999,4680,0,-.163E-5,0
INTELSAT 906 (IS-906),2002-041A,2026-07-17T16:22:38.697312,1.00273657,.0003723,5.8769,72.5426,28.1233,144.6581,0,U,27513,999,8733,0,.1E-7,0
GALAXY 13 (HORIZONS-1),2003-044A,2026-07-17T14:16:18.685344,1.00272362,.0002117,1.4950,83.4714,34.4184,241.5823,0,U,27954,999,4687,0,.122E-5,0
INTELSAT 10-02,2004-022A,2026-07-17T14:58:44.616000,1.00270229,.000022,0.0556,255.0697,5.8120,258.2367,0,U,28358,999,8086,0,-.21E-6,0
DIRECTV 8,2005-019A,2026-07-17T14:25:02.848224,1.00270458,.0003093,0.0222,65.2513,55.8500,271.5299,0,U,28659,999,7737,0,0,0
GALAXY 28 (G-28),2005-022A,2026-07-17T14:51:15.335136,1.00271437,.0002492,3.3741,78.5562,31.4507,21.1434,0,U,28702,999,5228,0,-.211E-5,0
GALAXY 16 (G-16),2006-023A,2026-07-17T14:30:47.297376,1.00271480,.0002578,0.0244,150.3278,325.3288,298.4463,0,U,29236,999,7327,0,-.136E-5,0
DIRECTV 9S,2006-043A,2026-07-17T14:30:09.855936,1.00271436,.0005003,2.4975,80.5356,32.3023,298.9181,0,U,29494,999,5168,0,-.124E-5,0
GALAXY 17 (G-17),2007-016B,2026-07-17T14:34:46.913952,1.00271358,.0003648,3.0468,79.5166,35.9755,313.6002,0,U,31307,999,7010,0,-.217E-5,0
INTELSAT 11 (IS-11),2007-044B,2026-07-17T09:48:59.175072,0.99052783,.0004297,3.6423,78.3024,99.9926,257.0586,0,U,32253,999,6874,0,-.21E-5,0
HORIZONS-2,2007-063B,2026-07-17T12:55:21.902016,1.00273110,.0003549,2.6786,80.2541,17.4103,317.7169,0,U,32388,999,6811,0,-.264E-5,0
DIRECTV 11,2008-013A,2026-07-17T11:05:31.824096,1.00270476,.0000151,0.0057,267.0546,297.3767,158.0387,0,U,32729,999,4589,0,-.135E-5,0
GALAXY 18 (G-18),2008-024A,2026-07-17T14:23:55.455360,1.00271154,.0002879,0.0165,78.4344,36.8080,273.1310,0,U,32951,999,4615,0,.16E-6,0
GALAXY 19 (G-19),2008-045A,2026-07-17T14:31:24.737088,1.00270940,.0002439,0.0501,242.9368,243.4882,289.8464,0,U,33376,999,6520,0,-.148E-5,0
FM-5,2009-034A,2026-07-17T12:51:52.236000,1.00268994,.0000896,0.0504,254.5777,104.1827,43.3849,0,U,35493,999,4694,0,-.209E-5,0
INTELSAT 14 (IS-14),2009-064A,2026-07-17T13:56:06.217728,1.00270040,.0002426,0.0172,42.8362,74.7534,341.8399,0,U,36097,999,6091,0,0,0
INTELSAT 15 (IS-15),2009-067A,2026-07-17T15:23:19.423392,1.00270400,.0002262,0.0203,46.9456,68.7098,135.7866,0,U,36106,999,4153,0,0,0
DIRECTV 12,2009-075A,2026-07-17T14:29:47.391936,1.00272808,.0000254,0.0447,222.1598,342.1549,205.8215,0,U,36131,999,4685,0,-.113E-5,0
INTELSAT 16 (IS-16),2010-006A,2026-07-17T13:26:07.754208,1.00271953,.0002327,0.0162,59.1351,76.6378,284.9205,0,U,36397,999,5995,0,-.254E-5,0
XM-5,2010-053A,2026-07-17T12:43:30.537984,1.00279095,.0001599,0.0620,264.4394,309.7763,156.8058,0,U,37185,999,5778,0,-.34E-6,0
INTELSAT 17 (IS-17),2010-065B,2026-07-17T15:17:49.949088,1.00272303,.0002546,0.0048,77.9507,49.2695,103.6815,0,U,37238,999,5355,0,-.11E-6,0
INTELSAT 28 (IS-28),2011-016A,2026-07-17T09:41:59.844768,1.00271929,.0003765,1.8825,82.2557,40.7743,285.9811,0,U,37392,999,5358,0,-.236E-5,0
INTELSAT 18 (IS-18),2011-056A,2026-07-17T13:30:38.696832,1.00272563,.0001836,0.0446,250.7447,237.8986,189.3875,0,U,37834,999,5411,0,.43E-6,0
INTELSAT 22 (IS-22),2012-011A,2026-07-17T15:19:34.780800,1.00271947,.000184,0.0198,51.8095,75.5737,110.0623,0,U,38098,999,749,0,-.68E-6,0
INTELSAT 19 (IS-19),2012-030A,2026-07-17T14:03:42.393312,1.00271767,.0002885,0.0190,44.2337,71.8923,196.1845,0,U,38356,999,5075,0,-.66E-6,0
INTELSAT 20 (IS-20),2012-043A,2026-07-17T15:18:34.877088,1.00271078,.0001289,0.0124,65.4071,115.9588,52.2353,0,U,38740,999,5105,0,-.34E-6,0
INTELSAT 21 (IS-21),2012-045A,2026-07-17T13:31:37.898112,1.00272129,.0001623,0.0475,245.0896,241.9620,313.2362,0,U,38749,999,5082,0,-.294E-5,0
